1 48881U 21059C   26210.91835829  .00002675  00000+0  21258-3 0  9992
2 48881  97.3872 334.3634 0004134 146.6347 213.5139 15.01248409280149
1 49157U 21082AD  26210.60596694  .00006874  00000+0  47180-3 0  9992
2 49157  69.9973 269.9612 0003270 349.2662  10.8431 15.06410187268994
1 49433U 21104AB  26210.51904075  .00000089  00000+0  23691-4 0  9994
2 49433  53.1603 292.0808 0001112  87.8308 272.2811 15.08830388261412
1 49434U 21104AC  26210.65874647  .00018279  00000+0  11065-2 0  9991
2 49434  53.2169 311.5504 0000600  35.6343 324.4690 15.10677909261159
1 49435U 21104AD  26210.92112086  .00003875  00000+0  26141-3 0  9992
2 49435  53.1603 290.2740 0001169  81.0986 279.0138 15.08842440260383
1 49436U 21104AE  26210.92016049  .00000035  00000+0  20316-4 0  9999
2 49436  53.1603 290.2788 0001041  92.1369 267.9741 15.08831950260383
1 49438U 21104AG  26210.63774519 -.00000151  00000+0  86250-5 0  9992
2 49438  53.1598 291.4793 0000955  85.3017 274.8083 15.08834523260345
1 49440U 21104AJ  26210.37551815 -.00000310  00000+0 -14007-5 0  9997
2 49440  53.1606 292.7257 0001066  85.7614 274.3499 15.08833678260300
1 49444U 21104AN  26210.63405379 -.00017507  00000+0 -10820-2 0  9995
2 49444  53.1601 291.5749 0002644 123.9351 236.1893 15.08919515260341
1 49737U 21115P   26210.75641819  .00000662  00000+0  59699-4 0  9997
2 49737  53.1588 231.0110 0001134  87.7793 272.3328 15.08814147256986
1 49746U 21115Y   26210.79688504  .00000594  00000+0  55419-4 0  9993
2 49746  53.1594 230.8298 0001090  72.4714 287.6396 15.08846741256981
1 49747U 21115Z   26210.32216027  .00000587  00000+0  54960-4 0  9992
2 49747  53.1590 232.9639 0001159  87.6021 272.5103 15.08836082256914
1 49748U 21115AA  26210.49875105 -.00000510  00000+0 -13940-4 0  9990
2 49748  53.1581 231.7413 0000976  67.8929 292.2166 15.08829289256958
1 49751U 21115AD  26210.46198519  .00001379  00000+0  10468-3 0  9991
2 49751  53.1587 232.2580 0001046  67.7453 292.3649 15.08841427256943
1 50183U 21125AD  26210.80383203  .00018440  00000+0  11412-2 0  9993
2 50183  53.1612 330.6631 0000758  42.2699 317.8352 15.09865741258102
1 50205U 21125BB  26210.68927661  .00000101  00000+0  24447-4 0  9995
2 50205  53.1602 291.3146 0001251  89.9283 270.1852 15.08832825258591
1 50832U 22001AF  26210.84553041  .00013577  00000+0  83851-3 0  9994
2 50832  53.1710 260.4888 0001745  17.2095 342.8956 15.10169716251736
1 50835U 22001AJ  26210.62625466  .00012567  00000+0  74336-3 0  9990
2 50835  53.2147 261.0299 0001849  18.9248 341.1814 15.11808136251709
1 51104U 22005A   26211.00001157  .00005942  00000+0  36103-3 0  9991
2 51104  53.1931   9.7250 0001016  79.5176 348.9794 15.11790218  5690
1 51121U 22005T   26210.15935742  .00000656  00000+0  59294-4 0  9995
2 51121  53.1611  13.7009 0001181  91.4060 268.7067 15.08834913250230
1 51124U 22005W   26210.84564112  .00000063  00000+0  22061-4 0  9997
2 51124  53.1606  20.6050 0001321  90.5115 269.6028 15.08833729250205
1 51128U 22005AA  26210.88612059  .00000833  00000+0  70443-4 0  9991
2 51128  53.1585  20.4255 0002089  93.1532 266.9698 15.08834874250197
1 51129U 22005AB  26210.84660029 -.00000174  00000+0  71332-5 0  9996
2 51129  53.1609  20.6009 0001358  85.6179 274.4968 15.08831902250198
1 51130U 22005AC  26210.89715902  .00000141  00000+0  26936-4 0  9996
2 51130  53.1601  20.3756 0001457  89.5765 270.5393 15.08835337250197
1 51132U 22005AE  26210.76099684  .00000014  00000+0  18949-4 0  9990
2 51132  53.1586  20.9879 0001394  97.4421 262.6729 15.08832087250172
1 51138U 22005AL  26210.85051607  .00017022  00000+0  10437-2 0  9998
2 51138  53.1726  20.3974 0000893 116.7021 243.4063 15.10259060250195
1 51769U 22017B   26210.90733264  .00007728  00000+0  48268-3 0  9999
2 51769  53.2152  60.0907 0002326  92.4937 267.6322 15.10370876244081
1 51773U 22017F   26210.87570943  .00015009  00000+0  93654-3 0  9993
2 51773  53.1860  60.4354 0001820  92.4686 267.6515 15.09713504244070
1 51774U 22017G   26210.87876174 -.00000278  00000+0  63030-6 0  9990
2 51774  53.1611  60.4581 0001450  92.8981 267.2177 15.08830045244033
1 51790U 22017Y   26210.90371602  .00019727  00000+0  12200-2 0  9995
2 51790  53.2130  70.4473 0001858  71.0212 289.0982 15.09848811245440
1 51886U 22022AL  26210.96094004  .00015976  00000+0  98082-3 0  9996
2 51886  53.1761  79.9105 0002183 103.5214 256.6022 15.10260018244731
1 51893U 22022AT  26210.91338538  .00016284  00000+0  98989-3 0  9991
2 51893  53.2155  80.2246 0002635 102.1667 257.9621 15.10605421244782
1 52121U 22029AK  26210.12343873 -.00000299  00000+0 -70646-6 0  9998
2 52121  53.1602 153.8511 0001315  81.1712 278.9429 15.08833418242273
1 52123U 22029AM  26210.82725635  .00000323  00000+0  38417-4 0  9991
2 52123  53.1611 150.5119 0001379  86.4702 273.6448 15.08836576242394
1 52125U 22029AP  26210.97352096 -.00000155  00000+0  83485-5 0  9996
2 52125  53.1604 150.0296 0001390  85.5978 274.5172 15.08836527242410
1 52126U 22029AQ  26210.11975859 -.00000334  00000+0 -29121-5 0  9998
2 52126  53.1606 153.8681 0001455  71.4837 288.6312 15.08834965242272
1 52127U 22029AR  26210.96983996  .00000692  00000+0  61562-4 0  9992
2 52127  53.1607 150.0485 0001323  86.2243 273.8900 15.08833787242409
1 52129U 22029AT  26210.83000286 -.00000248  00000+0  25250-5 0  9995
2 52129  53.1610 150.6775 0001939  73.8544 286.2661 15.08835395242399
1 52132U 22029AW  26210.83368069 -.00000042  00000+0  15477-4 0  9996
2 52132  53.1607 150.6597 0001336  89.1307 270.9837 15.08833924242390
1 52133U 22029AX  26210.88520109 -.00000053  00000+0  14757-4 0  9999
2 52133  53.1612 150.4291 0001214  92.7524 267.3606 15.08829986242401
1 52134U 22029AY  26210.16023385  .00001585  00000+0  11764-3 0  9999
2 52134  53.1607 153.6877 0001415  94.2185 265.8968 15.08840363242297
1 52136U 22029BA  26210.15287898  .00000696  00000+0  61820-4 0  9992
2 52136  53.1620 153.7192 0001460  78.0304 282.0851 15.08829092242296
1 52137U 22029BB  26210.80424137  .00000026  00000+0  19745-4 0  9990
2 52137  53.1617 150.7919 0001180  85.9161 274.1965 15.08829840242394
1 52138U 22029BC  26210.54664258  .00000622  00000+0  57158-4 0  9994
2 52138  53.1608 151.9498 0001355  88.6376 271.4771 15.08828939242351
1 52140U 22029BE  26210.13816044  .00000442  00000+0  45889-4 0  9992
2 52140  53.1613 153.7845 0001262  83.8079 276.3057 15.08831117242296
1 52262U 22041B   26210.66439528  .00000511  00000+0  50219-4 0  9997
2 52262  53.1603 191.3701 0001357  81.7173 278.3973 15.08829806235794
1 52263U 22041C   26210.27064859  .00001027  00000+0  82661-4 0  9995
2 52263  53.1598 193.1903 0001253  89.4279 270.6856 15.08818881235739
1 52266U 22041F   26210.68294051  .00017082  00000+0  10400-2 0  9990
2 52266  53.2115 191.2891 0002753  55.8438 304.2816 15.10515505235801
1 52269U 22041J   26210.24855883  .00000032  00000+0  20097-4 0  9993
2 52269  53.1597 193.2881 0001126  75.6201 284.4915 15.08831657235736
1 52270U 22041K   26210.17496984 -.00000914  00000+0 -39389-4 0  9995
2 52270  53.1606 193.6480 0001137  66.6508 293.4603 15.08825960235723
1 52271U 22041L   26210.97350620  .00001056  00000+0  84437-4 0  9990
2 52271  53.1597 190.0269 0001098  85.5576 274.5541 15.08841642235849
1 52275U 22041Q   26210.96615975 -.00000489  00000+0 -12634-4 0  9991
2 52275  53.1603 190.0630 0001163  66.3878 293.7235 15.08830630235846
1 52276U 22041R   26210.95511850 -.00000172  00000+0  72649-5 0  9999
2 52276  53.1611 190.1148 0001424  54.7455 305.3670 15.08836832235846
1 52278U 22041T   26210.95143831  .00000003  00000+0  18254-4 0  9994
2 52278  53.1593 190.1302 0001210  71.9761 288.1362 15.08835009235844
1 52281U 22041W   26210.95607758 -.00000222  00000+0  41646-5 0  9997
2 52281  53.1600 190.1097 0001348  72.8412 287.2727 15.08833973235846
1 52283U 22041Y   26210.68279995  .00000170  00000+0  28806-4 0  9990
2 52283  53.1597 191.3377 0001337  79.5660 280.5482 15.08835508235800
1 52331U 22045A   26210.93120293 -.00000252  00000+0  22601-5 0  9992
2 52331  53.1598 290.2273 0001003  88.8864 271.2242 15.08832676237118
1 52332U 22045B   26210.61199954  .00001216  00000+0  94507-4 0  9991
2 52332  53.1600 291.6732 0001076  88.6120 271.4994 15.08835450237064
1 52334U 22045D   26210.92753916 -.00002931  00000+0 -16620-3 0  9997
2 52334  53.1598 290.2442 0001096  90.1645 269.9472 15.08821281237102
1 52335U 22045E   26210.92384181 -.00000051  00000+0  14888-4 0  9997
2 52335  53.1592 290.2594 0001425  92.9085 267.2069 15.08832854237111
1 52337U 22045G   26210.73616417 -.00000646  00000+0 -22485-4 0  9991
2 52337  53.1595 291.1036 0001042  86.4306 273.6805 15.08834685237085
1 52339U 22045J   26210.94221845 -.00000861  00000+0 -36069-4 0  9995
2 52339  53.1598 289.8216 0000983  96.1451 263.9652 15.08817184237128
1 52341U 22045L   26210.57791154 -.00000180  00000+0  68020-5 0  9998
2 52341  53.1604 291.7671 0001223  88.6851 271.4281 15.08832674237060
1 52343U 22045N   26210.61473816  .00001312  00000+0  10055-3 0  9997
2 52343  53.1575 291.6505 0001212  85.8050 274.3080 15.08826057237070
1 52355U 22045AA  26210.91668981  .00017231  00000+0  10253-2 0  9998
2 52355  53.1587 280.2775 0000586 109.6755 314.5404 15.11343781  5846
1 52452U 22049B   26210.54294798  .00000387  00000+0  42405-4 0  9990
2 52452  53.1611 151.8396 0001162  96.4400 263.6724 15.08829294233526
1 52453U 22049C   26210.85576261 -.00001159  00000+0 -54715-4 0  9990
2 52453  53.1604 150.5574 0001554  98.2671 261.8497 15.08838709233571
1 52454U 22049D   26210.52823595 -.00000146  00000+0  88971-5 0  9996
2 52454  53.1603 152.0312 0001344  68.0649 292.0485 15.08833850233525
1 52455U 22049E   26210.85305002  .00000038  00000+0  20496-4 0  9997
2 52455  53.1597 150.5688 0001461  92.6148 267.5010 15.08830929233574
1 52456U 22049F   26210.84935773 -.00000372  00000+0 -52703-5 0  9991
2 52456  53.1614 150.5904 0001534  78.6105 281.5059 15.08832168233570
1 52457U 22049G   26210.97719937 -.00000328  00000+0 -25155-5 0  9990
2 52457  53.1601 150.0032 0001479  86.0380 274.0781 15.08833999233594
1 52458U 22049H   26210.97447467 -.00000753  00000+0 -29200-4 0  9993
2 52458  53.1591 150.0242 0001606  90.3678 269.7497 15.08835129233598
1 52479U 22049AE  26210.93119933  .00000154  00000+0  27775-4 0  9994
2 52479  53.1601 130.2203 0001391  82.0722 278.0427 15.08832129235101
1 52490U 22049AR  26210.78030482  .00002282  00000+0  16137-3 0  9994
2 52490  53.1606 130.8993 0001205  95.3980 264.7149 15.08846534233845
1 52491U 22049AS  26210.92015930 -.00000832  00000+0 -34172-4 0  9993
2 52491  53.1609 130.2718 0001273  75.1291 284.9841 15.08829811233868
1 52498U 22049AZ  26210.94315864  .00001148  00000+0  90252-4 0  9991
2 52498  53.1599 120.1685 0000901  79.7932 280.3161 15.08821498234008
1 52500U 22049BB  26210.93948052  .00000389  00000+0  42553-4 0  9992
2 52500  53.1612 120.1836 0001333  86.8479 273.2665 15.08833838234002
1 52502U 22049BD  26210.93580497  .00000881  00000+0  73467-4 0  9994
2 52502  53.1613 120.2311 0001625  95.5852 264.5325 15.08832349234002
1 52544U 22051M   26210.46522362  .00000548  00000+0  52495-4 0  9996
2 52544  53.1584 217.3271 0000970  73.4305 286.6793 15.08842308232770
1 52554U 22051X   26210.72652131  .00001564  00000+0  11637-3 0  9995
2 52554  53.1586 216.1431 0000971  35.4872 324.6184 15.08820624232815
1 52559U 22051AC  26210.68190426  .00000222  00000+0  32043-4 0  9994
2 52559  53.1604 201.5240 0001142  73.5225 286.5892 15.08831135233017
1 52560U 22051AD  26210.66716313 -.00000526  00000+0 -14973-4 0  9994
2 52560  53.1601 201.4084 0001247  80.9961 279.1171 15.08828462233013
1 52564U 22051AH  26210.71273435 -.00003685  00000+0 -21350-3 0  9992
2 52564  53.1592 216.2124 0000837  88.4112 271.6975 15.08845105232819
1 52565U 22051AJ  26210.19979686 -.00000036  00000+0  15847-4 0  9997
2 52565  53.1596 203.5124 0001165  73.6464 286.4655 15.08834370232949
1 52576U 22051AS  26210.96252341  .00001470  00000+0  11039-3 0  9996
2 52576  53.1592 200.0809 0001510  60.4147 299.6995 15.08846364233068
1 52580U 22051AW  26210.74587013  .00001070  00000+0  85311-4 0  9995
2 52580  53.1590 216.0664 0001326  89.0820 271.0323 15.08835898232829
1 52581U 22051AX  26210.95788171  .00000625  00000+0  57348-4 0  9991
2 52581  53.1597 200.0997 0001240  68.2752 291.8372 15.08832535233063
1 52584U 22051BA  26210.96157431  .00000745  00000+0  64941-4 0  9994
2 52584  53.1600 200.0834 0001341  81.1358 278.9785 15.08827478233063
1 52585U 22051BB  26210.21451627 -.00000328  00000+0 -25066-5 0  9992
2 52585  53.1599 203.4014 0001092  71.5151 288.5959 15.08831300232951
1 52586U 22051BC  26210.68556105  .00000239  00000+0  33133-4 0  9993
2 52586  53.1590 201.3265 0001126  67.6442 292.4668 15.08831609233027
1 52588U 22051BE  26210.67452218 -.00000451  00000+0 -10255-4 0  9992
2 52588  53.1598 201.3746 0001229  80.7886 279.3244 15.08829155233020
1 52617U 22052V   26210.10136149  .00001011  00000+0  81588-4 0  9994
2 52617  53.1610 353.9551 0001140  83.5426 276.5696 15.08831686232334
1 52629U 22052AH  26210.66071626  .00000004  00000+0  18349-4 0  9992
2 52629  53.1616 351.4033 0001367  94.0993 266.0155 15.08834978232429
1 52632U 22052AL  26210.80423768 -.00000169  00000+0  75006-5 0  9997
2 52632  53.1615 350.7978 0001141  88.9484 271.1639 15.08834479232452
1 52633U 22052AM  26210.78215915  .00001952  00000+0  14077-3 0  9997
2 52633  53.1625 350.8950 0001477  79.2249 280.8908 15.08830622232451
1 52658U 22053C   26210.44866007 -.00003506  00000+0 -20230-3 0  9999
2 52658  53.1589 237.3940 0001077  86.7970 273.3145 15.08838267232638
1 52662U 22053G   26210.49651599 -.00000671  00000+0 -24084-4 0  9999
2 52662  53.1580 237.1782 0001139  67.6951 292.4161 15.08828497232456
1 52663U 22053H   26210.55905107  .00000665  00000+0  59839-4 0  9991
2 52663  53.1583 236.9017 0001104  79.1383 280.9733 15.08841051232466
1 52664U 22053J   26210.30145843 -.00000289  00000+0 -69358-7 0  9992
2 52664  53.1582 238.0527 0000847  54.8220 305.2850 15.08832040232423
1 52665U 22053K   26210.34929690  .00000305  00000+0  37250-4 0  9997
2 52665  53.1591 237.8417 0000933  75.0996 285.0099 15.08836543232433
